[{"OBJECT_NAME":"STARLINK-1477","OBJECT_ID":"2020-038AA","EPOCH":"2026-03-09T15:11:57.486336","MEAN_MOTION":15.14348726,"ECCENTRICITY":5.98e-5,"INCLINATION":53.0515,"RA_OF_ASC_NODE":213.2201,"ARG_OF_PERICENTER":95.7123,"MEAN_ANOMALY":264.3937,"EPHEMERIS_TYPE":0,"CLASSIFICATION_TYPE":"U","NORAD_CAT_ID":45754,"ELEMENT_SET_NO":999,"REV_AT_EPOCH":31652,"BSTAR":0.0019315,"MEAN_MOTION_DOT":0.00035702,"MEAN_MOTION_DDOT":0},{"OBJECT_NAME":"FENGYUN 1C DEB","OBJECT_ID":"1999-025AMH","EPOCH":"2026-03-09T12:42:15.737184","MEAN_MOTION":15.14321833,"ECCENTRICITY":0.0006603,"INCLINATION":99.0205,"RA_OF_ASC_NODE":1.3766,"ARG_OF_PERICENTER":145.7382,"MEAN_ANOMALY":270.0225,"EPHEMERIS_TYPE":0,"CLASSIFICATION_TYPE":"U","NORAD_CAT_ID":30602,"ELEMENT_SET_NO":999,"REV_AT_EPOCH":99107,"BSTAR":0.010046779,"MEAN_MOTION_DOT":0.0018881,"MEAN_MOTION_DDOT":0}]
